{
  "norad_id": 53863,
  "name": "STARLINK-4788",
  "history": [
    {
      "epoch": "2026-03-28T18:46:19.063776Z",
      "apogee_km": 540.6313795102033,
      "perigee_km": 538.8045123760785,
      "latitude_deg": -1.047828797705053e-05,
      "longitude_deg": 90.67188683700056,
      "height_km": 540.5566262171617,
      "semi_major_axis_km": 6917.854945943141,
      "eccentricity": 0.00013204,
      "inclination_deg": 53.2173,
      "raan_deg": 198.449,
      "arg_perigee_deg": 86.4173,
      "mean_anomaly_deg": 273.697,
      "mean_motion_rev_day": 15.08848324
    }
  ]
}