{"fetched_at":"2026-03-30T06:02:59Z","count":15439,"tles":[{"name":"STARLINK-4788","line1":"1 53863U 22114AX  26087.78216509  .00002136  00000+0  15224-3 0  9994","line2":"2 53863  53.2173 198.4490 0001320  86.4173 273.6970 15.08848324195998","category":"Starlink"}]}